[Satellite]
VERSION=1.1
NAME=SL-8 R/B
NICKNAME=SL-8 R/B
TLE1=1 08459U 75112B   18021.11426866 -.00000006  00000-0  67032-5 0  9998
TLE2=2 08459  74.0610  72.0206 0016270 192.0766 167.9999 14.36772096205484
